start=new Date('2023-04-05T00:00:00.000Z').valueOf();
sats=[{"OBJECT_ID":"2022-001AX","NORAD_CAT_ID":"50848","CENTER_NAME":"EARTH","EPOCH":"2023-04-04T21:07:54.313536","ECCENTRICITY":"0.00013050","MEAN_MOTION_DDOT":"0.0000000000000","SEMIMAJOR_AXIS":"6917.887","ELEMENT_SET_NO":"999","OBJECT_TYPE":"PAYLOAD","SITE":"AFETR","COUNTRY_CODE":"US","TLE_LINE1":"1 50848U 22001AX  23094.88048974  .00001138  00000-0  89608-4 0  9994","PERIOD":"95.438","REF_FRAME":"TEME","RCS_SIZE":"LARGE","LAUNCH_DATE":"2022-01-06","EPHEMERIS_TYPE":"0","REV_AT_EPOCH":"7007","DECAY_DATE":null,"BSTAR":"0.00008960800000","TIME_SYSTEM":"UTC","GP_ID":"229473282","CLASSIFICATION_TYPE":"U","INCLINATION":"53.2158","TLE_LINE2":"2 50848  53.2158 301.6807 0001305  94.8334 265.2808 15.08837888 70077","MEAN_ELEMENT_THEORY":"SGP4","FILE":"3880185","MEAN_ANOMALY":"265.2808","ARG_OF_PERICENTER":"94.8334","RA_OF_ASC_NODE":"301.6807","MEAN_MOTION_DOT":"0.00001138","PERIAPSIS":"538.849","OBJECT_NAME":"STARLINK-3315","APOAPSIS":"540.655","MEAN_MOTION":"15.08837888"},{"MEAN_MOTION":"15.08844840","PERIAPSIS":"538.869","OBJECT_NAME":"STARLINK-3311","APOAPSIS":"540.592","RA_OF_ASC_NODE":"301.6288","MEAN_MOTION_DOT":"0.00003842","FILE":"3880185","MEAN_ANOMALY":"271.4465","ARG_OF_PERICENTER":"88.6670","INCLINATION":"53.2136","CLASSIFICATION_TYPE":"U","TLE_LINE2":"2 50849  53.2136 301.6288 0001245  88.6670 271.4465 15.08844840 69964","MEAN_ELEMENT_THEORY":"SGP4","BSTAR":"0.00025931000000","TIME_SYSTEM":"UTC","GP_ID":"229472922","DECAY_DATE":null,"EPHEMERIS_TYPE":"0","REV_AT_EPOCH":"6996","REF_FRAME":"TEME","RCS_SIZE":"LARGE","LAUNCH_DATE":"2022-01-06","TLE_LINE1":"1 50849U 22001AY  23094.89153039  .00003842  00000-0  25931-3 0  9997","PERIOD":"95.437","COUNTRY_CODE":"US","ELEMENT_SET_NO":"999","OBJECT_TYPE":"PAYLOAD","SITE":"AFETR","EPOCH":"2023-04-04T21:23:48.225696","CENTER_NAME":"EARTH","ECCENTRICITY":"0.00012450","MEAN_MOTION_DDOT":"0.0000000000000","SEMIMAJOR_AXIS":"6917.866","NORAD_CAT_ID":"50849","OBJECT_ID":"2022-001AY"},{"LAUNCH_DATE":"2022-01-06","REF_FRAME":"TEME","RCS_SIZE":"LARGE","TLE_LINE1":"1 50850U 22001AZ  23094.82896514  .00002666  00000-0  18552-3 0  9998","PERIOD":"95.437","COUNTRY_CODE":"US","SITE":"AFETR","ELEMENT_SET_NO":"999","OBJECT_TYPE":"PAYLOAD","MEAN_MOTION_DDOT":"0.0000000000000","SEMIMAJOR_AXIS":"6917.860","CENTER_NAME":"EARTH","EPOCH":"2023-04-04T19:53:42.588096","ECCENTRICITY":"0.00013500","NORAD_CAT_ID":"50850","OBJECT_ID":"2022-001AZ","MEAN_MOTION":"15.08846610","APOAPSIS":"540.659","PERIAPSIS":"538.791","OBJECT_NAME":"STARLINK-3312","RA_OF_ASC_NODE":"261.9136","MEAN_MOTION_DOT":"0.00002666","MEAN_ANOMALY":"275.0363","ARG_OF_PERICENTER":"85.0783","FILE":"3880211","TLE_LINE2":"2 50850  53.2143 261.9136 0001350  85.0783 275.0363 15.08846610 69859","MEAN_ELEMENT_THEORY":"SGP4","CLASSIFICATION_TYPE":"U","INCLINATION":"53.2143","GP_ID":"229497520","TIME_SYSTEM":"UTC","BSTAR":"0.00018552000000","DECAY_DATE":null,"EPHEMERIS_TYPE":"0","REV_AT_EPOCH":"6985"},{"INCLINATION":"53.2152","CLASSIFICATION_TYPE":"U","TLE_LINE2":"2 50851  53.2152 301.7044 0000879  99.3945 260.7146 15.08837763 70046","MEAN_ELEMENT_THEORY":"SGP4","BSTAR":"0.00014985000000","GP_ID":"229472928","TIME_SYSTEM":"UTC","DECAY_DATE":null,"EPHEMERIS_TYPE":"0","REV_AT_EPOCH":"7004","MEAN_MOTION":"15.08837763","OBJECT_NAME":"STARLINK-3314","PERIAPSIS":"539.144","APOAPSIS":"540.360","RA_OF_ASC_NODE":"301.7044","MEAN_MOTION_DOT":"0.00002098","FILE":"3880185","MEAN_ANOMALY":"260.7146","ARG_OF_PERICENTER":"99.3945","CENTER_NAME":"EARTH","EPOCH":"2023-04-04T21:03:59.614848","ECCENTRICITY":"0.00008790","MEAN_MOTION_DDOT":"0.0000000000000","SEMIMAJOR_AXIS":"6917.887","NORAD_CAT_ID":"50851","OBJECT_ID":"2022-001BA","REF_FRAME":"TEME","RCS_SIZE":"LARGE","LAUNCH_DATE":"2022-01-06","TLE_LINE1":"1 50851U 22001BA  23094.87777332  .00002098  00000-0  14985-3 0  9995","PERIOD":"95.438","COUNTRY_CODE":"US","ELEMENT_SET_NO":"999","OBJECT_TYPE":"PAYLOAD","SITE":"AFETR"},{"NORAD_CAT_ID":"51104","SEMIMAJOR_AXIS":"6917.829","MEAN_MOTION_DDOT":"0.0000000000000","ECCENTRICITY":"0.00013560","CENTER_NAME":"EARTH","EPOCH":"2023-04-04T07:11:56.998464","OBJECT_ID":"2022-005A","PERIOD":"95.436","TLE_LINE1":"1 51104U 22005A   23094.29996526  .00005388  00000-0  35618-3 0  9996","LAUNCH_DATE":"2022-01-19","RCS_SIZE":"LARGE","REF_FRAME":"TEME","SITE":"AFETR","OBJECT_TYPE":"PAYLOAD","ELEMENT_SET_NO":"999","COUNTRY_CODE":"US","GP_ID":"229466428","TIME_SYSTEM":"UTC","BSTAR":"0.00035618000000","TLE_LINE2":"2 51104  53.2157  54.2819 0001356  99.8897 260.2248 15.08856748 67289","MEAN_ELEMENT_THEORY":"SGP4","INCLINATION":"53.2157","CLASSIFICATION_TYPE":"U","EPHEMERIS_TYPE":"0","REV_AT_EPOCH":"6728","DECAY_DATE":null,"APOAPSIS":"540.632","PERIAPSIS":"538.756","OBJECT_NAME":"STARLINK-3366","MEAN_MOTION":"15.08856748","MEAN_ANOMALY":"260.2248","ARG_OF_PERICENTER":"99.8897","FILE":"3879974","MEAN_MOTION_DOT":"0.00005388","RA_OF_ASC_NODE":"54.2819"},{"RCS_SIZE":"LARGE","REF_FRAME":"TEME","LAUNCH_DATE":"2022-01-19","PERIOD":"95.438","TLE_LINE1":"1 51105U 22005B   23094.87037330 -.00000026  00000-0  16450-4 0  9999","COUNTRY_CODE":"US","OBJECT_TYPE":"PAYLOAD","ELEMENT_SET_NO":"999","SITE":"AFETR","ECCENTRICITY":"0.00018410","CENTER_NAME":"EARTH","EPOCH":"2023-04-04T20:53:20.253120","SEMIMAJOR_AXIS":"6917.882","MEAN_MOTION_DDOT":"0.0000000000000","NORAD_CAT_ID":"51105","OBJECT_ID":"2022-005B","MEAN_MOTION":"15.08839311","OBJECT_NAME":"STARLINK-3350","PERIAPSIS":"538.474","APOAPSIS":"541.021","MEAN_MOTION_DOT":"-0.00000026","RA_OF_ASC_NODE":"51.7230","FILE":"3880094","ARG_OF_PERICENTER":"80.6391","MEAN_ANOMALY":"279.4809","INCLINATION":"53.2155","CLASSIFICATION_TYPE":"U","TLE_LINE2":"2 51105  53.2155  51.7230 0001841  80.6391 279.4809 15.08839311 68488","MEAN_ELEMENT_THEORY":"SGP4","BSTAR":"0.00001645000000","TIME_SYSTEM":"UTC","GP_ID":"229470891","DECAY_DATE":null,"REV_AT_EPOCH":"6848","EPHEMERIS_TYPE":"0"},{"MEAN_MOTION":"15.08838712","APOAPSIS":"540.694","PERIAPSIS":"538.805","OBJECT_NAME":"STARLINK-3176","MEAN_MOTION_DOT":"0.00001778","RA_OF_ASC_NODE":"51.5314","MEAN_ANOMALY":"247.9086","ARG_OF_PERICENTER":"112.2051","FILE":"3880211","TLE_LINE2":"2 51106  53.2178  51.5314 0001365 112.2051 247.9086 15.08838712 67379","MEAN_ELEMENT_THEORY":"SGP4","CLASSIFICATION_TYPE":"U","INCLINATION":"53.2178","TIME_SYSTEM":"UTC","GP_ID":"229497284","BSTAR":"0.00012978000000","DECAY_DATE":null,"EPHEMERIS_TYPE":"0","REV_AT_EPOCH":"6737","LAUNCH_DATE":"2022-01-19","RCS_SIZE":"LARGE","REF_FRAME":"TEME","PERIOD":"95.438","TLE_LINE1":"1 51106U 22005C   23094.91453776  .00001778  00000-0  12978-3 0  9995","COUNTRY_CODE":"US","SITE":"AFETR","OBJECT_TYPE":"PAYLOAD","ELEMENT_SET_NO":"999","SEMIMAJOR_AXIS":"6917.884","MEAN_MOTION_DDOT":"0.0000000000000","ECCENTRICITY":"0.00013650","EPOCH":"2023-04-04T21:56:56.062464","CENTER_NAME":"EARTH","NORAD_CAT_ID":"51106","OBJECT_ID":"2022-005C"},{"APOAPSIS":"540.644","OBJECT_NAME":"STARLINK-3368","PERIAPSIS":"538.847","MEAN_MOTION":"15.08839891","MEAN_ANOMALY":"272.7204","ARG_OF_PERICENTER":"87.3937","FILE":"3879974","RA_OF_ASC_NODE":"64.1947","MEAN_MOTION_DOT":"0.00000435","GP_ID":"229465677","TIME_SYSTEM":"UTC","BSTAR":"0.00004539500000","TLE_LINE2":"2 51107  53.2165  64.1947 0001299  87.3937 272.7204 15.08839891 67152","MEAN_ELEMENT_THEORY":"SGP4","CLASSIFICATION_TYPE":"U","INCLINATION":"53.2165","EPHEMERIS_TYPE":"0","REV_AT_EPOCH":"6715","DECAY_DATE":null,"TLE_LINE1":"1 51107U 22005D   23094.31744859  .00000435  00000-0  45395-4 0  9994","PERIOD":"95.438","LAUNCH_DATE":"2022-01-19","REF_FRAME":"TEME","RCS_SIZE":"LARGE","SITE":"AFETR","ELEMENT_SET_NO":"999","OBJECT_TYPE":"PAYLOAD","COUNTRY_CODE":"US","NORAD_CAT_ID":"51107","MEAN_MOTION_DDOT":"0.0000000000000","SEMIMAJOR_AXIS":"6917.881","CENTER_NAME":"EARTH","EPOCH":"2023-04-04T07:37:07.558176","ECCENTRICITY":"0.00012990","OBJECT_ID":"2022-005D"},{"OBJECT_ID":"2022-005E","NORAD_CAT_ID":"51108","MEAN_MOTION_DDOT":"0.0000000000000","SEMIMAJOR_AXIS":"6917.883","EPOCH":"2023-04-04T20:48:02.157696","CENTER_NAME":"EARTH","ECCENTRICITY":"0.00014480","SITE":"AFETR","ELEMENT_SET_NO":"999","OBJECT_TYPE":"PAYLOAD","COUNTRY_CODE":"US","TLE_LINE1":"1 51108U 22005E   23094.86669164 -.00000061  00000-0  14233-4 0  9993","PERIOD":"95.438","LAUNCH_DATE":"2022-01-19","REF_FRAME":"TEME","RCS_SIZE":"LARGE","EPHEMERIS_TYPE":"0","REV_AT_EPOCH":"6847","DECAY_DATE":null,"TIME_SYSTEM":"UTC","GP_ID":"229471273","BSTAR":"0.00001423300000","TLE_LINE2":"2 51108  53.2169  51.7443 0001448  83.0689 277.0468 15.08839290 68472","MEAN_ELEMENT_THEORY":"SGP4","CLASSIFICATION_TYPE":"U","INCLINATION":"53.2169","MEAN_ANOMALY":"277.0468","ARG_OF_PERICENTER":"83.0689","FILE":"3880100","RA_OF_ASC_NODE":"51.7443","MEAN_MOTION_DOT":"-0.00000061","APOAPSIS":"540.749","PERIAPSIS":"538.746","OBJECT_NAME":"STARLINK-3362","MEAN_MOTION":"15.08839290"},{"GP_ID":"229466678","TIME_SYSTEM":"UTC","BSTAR":"0.00021670000000","TLE_LINE2":"2 51109  53.2180  54.3117 0001137  91.0415 269.0708 15.08860381 67050","MEAN_ELEMENT_THEORY":"SGP4","CLASSIFICATION_TYPE":"U","INCLINATION":"53.2180","REV_AT_EPOCH":"6705","EPHEMERIS_TYPE":"0","DECAY_DATE":null,"APOAPSIS":"540.470","PERIAPSIS":"538.897","OBJECT_NAME":"STARLINK-3358","MEAN_MOTION":"15.08860381","MEAN_ANOMALY":"269.0708","ARG_OF_PERICENTER":"91.0415","FILE":"3879974","RA_OF_ASC_NODE":"54.3117","MEAN_MOTION_DOT":"0.00003164","NORAD_CAT_ID":"51109","MEAN_MOTION_DDOT":"0.0000000000000","SEMIMAJOR_AXIS":"6917.818","EPOCH":"2023-04-04T07:02:43.577088","CENTER_NAME":"EARTH","ECCENTRICITY":"0.00011370","OBJECT_ID":"2022-005F","TLE_LINE1":"1 51109U 22005F   23094.29355992  .00003164  00000-0  21670-3 0  9990","PERIOD":"95.436","LAUNCH_DATE":"2022-01-19","REF_FRAME":"TEME","RCS_SIZE":"LARGE","SITE":"AFETR","ELEMENT_SET_NO":"999","OBJECT_TYPE":"PAYLOAD","COUNTRY_CODE":"US"}];
